HAWK-5A                 
1 52757U 22057AB  26199.38011648  .00010617  00000+0  17570-3 0  9997
2 52757  97.6634   0.2729 0003038 322.8230  37.2811 15.52394008231181
HAWK-6B                 
1 55324U 23011A   26198.93568646  .00002570  00000+0  11461-3 0  9998
2 55324  40.4976 172.6890 0004472 254.5549 105.4766 15.23169163192531
HAWK-6C                 
1 55326U 23011C   26199.26288320  .00002222  00000+0  10020-3 0  9999
2 55326  40.4967 167.6154 0004974 250.3835 109.6437 15.23170261192597
HAWK-6A                 
1 55327U 23011D   26199.19735523  .00002317  00000+0  10414-3 0  9996
2 55327  40.4977 169.6247 0004620 247.0466 112.9856 15.23169943192581
HAWK-7A                 
1 56191U 23054P   26199.61969295  .00002774  00000+0  10532-3 0  9993
2 56191  97.2655  86.1575 0001107 310.8563  49.2580 15.27652807181826
HAWK-7B                 
1 56193U 23054R   26199.61962751  .00002800  00000+0  10627-3 0  9990
2 56193  97.2680  84.4324 0000959   8.5921 351.5335 15.27651293181827
HAWK-7C                 
1 56200U 23054Y   26199.55399654  .00002757  00000+0  10467-3 0  9991
2 56200  97.2657  85.1276 0000582 335.5350  24.5862 15.27653371181815
