OBJECT_NAME,OBJECT_ID,EPOCH,MEAN_MOTION,ECCENTRICITY,INCLINATION,RA_OF_ASC_NODE,ARG_OF_PERICENTER,MEAN_ANOMALY,EPHEMERIS_TYPE,CLASSIFICATION_TYPE,NORAD_CAT_ID,ELEMENT_SET_NO,REV_AT_EPOCH,BSTAR,MEAN_MOTION_DOT,MEAN_MOTION_DDOT
HAWK-5A,2022-057AB,2026-07-18T09:07:22.063872,15.52394008,.0003038,97.6634,0.2729,322.8230,37.2811,0,U,52757,999,23118,.17569996E-3,.10617E-3,0
HAWK-6B,2023-011A,2026-07-17T22:27:23.310144,15.23169163,.00044723,40.4976,172.6890,254.5549,105.4766,0,U,55324,999,19253,.11460971E-3,.257E-4,0
HAWK-6C,2023-011C,2026-07-18T06:18:33.108480,15.23170261,.00049743,40.4967,167.6154,250.3835,109.6437,0,U,55326,999,19259,.10019816E-3,.2222E-4,0
HAWK-6A,2023-011D,2026-07-18T04:44:11.491872,15.23169943,.00046206,40.4977,169.6247,247.0466,112.9856,0,U,55327,999,19258,.10414425E-3,.2317E-4,0
HAWK-7A,2023-054P,2026-07-18T14:52:21.470880,15.27652807,.00011074,97.2655,86.1575,310.8563,49.2580,0,U,56191,999,18182,.10531703E-3,.2774E-4,0
HAWK-7B,2023-054R,2026-07-18T14:52:15.816864,15.27651293,.00009599,97.2680,84.4324,8.5921,351.5335,0,U,56193,999,18182,.10626747E-3,.28E-4,0
HAWK-7C,2023-054Y,2026-07-18T13:17:45.301056,15.27653371,.0000582,97.2657,85.1276,335.5350,24.5862,0,U,56200,999,18181,.10466827E-3,.2757E-4,0
